ONEWEB-0137             
1 47283U 20100AB  26157.78095272  .00000025  00000+0  33623-4 0  9995
2 47283  87.8956 352.7289 0001926  89.1198 271.0151 13.12442692263203
ONEWEB-0138             
1 47284U 20100AC  26157.53022764  .00000521  00000+0  14117-2 0  9991
2 47284  87.8949 352.7848 0001609  94.2851 265.8461 13.12443280263252
ONEWEB-0139             
1 47285U 20100AD  26157.79972490 -.00000385  00000+0 -11063-2 0  9997
2 47285  87.8952 352.7175 0001749  90.1165 270.0164 13.12443830263369
ONEWEB-0140             
1 47286U 20100AE  26157.83009078  .00000432  00000+0  11649-2 0  9997
2 47286  87.8950 352.7023 0001679  82.6072 277.5247 13.12443325263335
ONEWEB-0141             
1 47287U 20100AF  26157.79944924 -.00000375  00000+0 -10776-2 0  9999
2 47287  87.8950 352.7130 0002099  91.9799 268.1570 13.12444033263311
ONEWEB-0142             
1 47288U 20100AG  26157.78788215 -.00000281  00000+0 -81721-3 0  9993
2 47288  87.8944 352.7377 0001997 100.7171 259.4183 13.12441325263300
ONEWEB-0143             
1 47289U 20100AH  26157.79789304 -.00000410  00000+0 -11741-2 0  9993
2 47289  87.8952 352.7337 0001825  89.0756 271.0582 13.12443357263281
ONEWEB-0144             
1 47290U 20100AJ  26157.76911574  .00000651  00000+0  17735-2 0  9992
2 47290  87.8955 352.7132 0001660 100.4247 259.7069 13.12441478263206
ONEWEB-0145             
1 47291U 20100AK  26157.81653382 -.00000033  00000+0 -12819-3 0  9994
2 47291  87.8941 352.7330 0001801  91.4648 268.6687 13.12444786263405
ONEWEB-0146             
1 47292U 20100AL  26157.58443582 -.00000130  00000+0 -39678-3 0  9998
2 47292  87.8948 352.7700 0001856  79.0237 281.1101 13.12444663263281
ONEWEB-0147             
1 47293U 20100AM  26157.77926005  .00000118  00000+0  29336-3 0  9990
2 47293  87.8951 352.7127 0001629  87.3158 272.8157 13.12442876263205
ONEWEB-0115             
1 48042U 21025A   26157.73938882  .00000146  00000+0  36448-3 0  9995
2 48042  87.8949 322.3041 0001784  91.9106 268.2228 13.13470754252224
ONEWEB-0152             
1 48043U 21025B   26157.75293166  .00000317  00000+0  83394-3 0  9999
2 48043  87.8954 322.2979 0001755  89.5129 270.6201 13.13470006252189
ONEWEB-0153             
1 48044U 21025C   26157.73092001 -.00000098  00000+0 -30208-3 0  9997
2 48044  87.8947 322.3059 0001850  96.9103 263.2237 13.13471019252173
ONEWEB-0154             
1 48045U 21025D   26157.72753066 -.00000096  00000+0 -29858-3 0  9999
2 48045  87.8949 322.3041 0001718  93.7502 266.3824 13.13470532252139
ONEWEB-0116             
1 48046U 21025E   26157.69027762  .00000198  00000+0  50667-3 0  9996
2 48046  87.8957 322.3073 0001718  89.9785 270.1541 13.13469487252275
