[{"OBJECT_NAME":"ONEWEB-0137","OBJECT_ID":"2020-100AB","EPOCH":"2026-06-06T18:44:34.315008","MEAN_MOTION":13.12442692,"ECCENTRICITY":0.0001926,"INCLINATION":87.8956,"RA_OF_ASC_NODE":352.7289,"ARG_OF_PERICENTER":89.1198,"MEAN_ANOMALY":271.0151,"EPHEMERIS_TYPE":0,"CLASSIFICATION_TYPE":"U","NORAD_CAT_ID":47283,"ELEMENT_SET_NO":999,"REV_AT_EPOCH":26320,"BSTAR":3.3623e-05,"MEAN_MOTION_DOT":2.5e-07,"MEAN_MOTION_DDOT":0.0},{"OBJECT_NAME":"ONEWEB-0138","OBJECT_ID":"2020-100AC","EPOCH":"2026-06-06T12:43:31.668096","MEAN_MOTION":13.1244328,"ECCENTRICITY":0.0001609,"INCLINATION":87.8949,"RA_OF_ASC_NODE":352.7848,"ARG_OF_PERICENTER":94.2851,"MEAN_ANOMALY":265.8461,"EPHEMERIS_TYPE":0,"CLASSIFICATION_TYPE":"U","NORAD_CAT_ID":47284,"ELEMENT_SET_NO":999,"REV_AT_EPOCH":26325,"BSTAR":0.0014116999999999999,"MEAN_MOTION_DOT":5.21e-06,"MEAN_MOTION_DDOT":0.0},{"OBJECT_NAME":"ONEWEB-0139","OBJECT_ID":"2020-100AD","EPOCH":"2026-06-06T19:11:36.231360","MEAN_MOTION":13.1244383,"ECCENTRICITY":0.0001749,"INCLINATION":87.8952,"RA_OF_ASC_NODE":352.7175,"ARG_OF_PERICENTER":90.1165,"MEAN_ANOMALY":270.0164,"EPHEMERIS_TYPE":0,"CLASSIFICATION_TYPE":"U","NORAD_CAT_ID":47285,"ELEMENT_SET_NO":999,"REV_AT_EPOCH":26336,"BSTAR":-0.0011063000000000002,"MEAN_MOTION_DOT":-3.85e-06,"MEAN_MOTION_DDOT":0.0},{"OBJECT_NAME":"ONEWEB-0140","OBJECT_ID":"2020-100AE","EPOCH":"2026-06-06T19:55:19.843392","MEAN_MOTION":13.12443325,"ECCENTRICITY":0.0001679,"INCLINATION":87.895,"RA_OF_ASC_NODE":352.7023,"ARG_OF_PERICENTER":82.6072,"MEAN_ANOMALY":277.5247,"EPHEMERIS_TYPE":0,"CLASSIFICATION_TYPE":"U","NORAD_CAT_ID":47286,"ELEMENT_SET_NO":999,"REV_AT_EPOCH":26333,"BSTAR":0.0011649,"MEAN_MOTION_DOT":4.32e-06,"MEAN_MOTION_DDOT":0.0},{"OBJECT_NAME":"ONEWEB-0141","OBJECT_ID":"2020-100AF","EPOCH":"2026-06-06T19:11:12.414336","MEAN_MOTION":13.12444033,"ECCENTRICITY":0.0002099,"INCLINATION":87.895,"RA_OF_ASC_NODE":352.713,"ARG_OF_PERICENTER":91.9799,"MEAN_ANOMALY":268.157,"EPHEMERIS_TYPE":0,"CLASSIFICATION_TYPE":"U","NORAD_CAT_ID":47287,"ELEMENT_SET_NO":999,"REV_AT_EPOCH":26331,"BSTAR":-0.0010776,"MEAN_MOTION_DOT":-3.75e-06,"MEAN_MOTION_DDOT":0.0},{"OBJECT_NAME":"ONEWEB-0142","OBJECT_ID":"2020-100AG","EPOCH":"2026-06-06T18:54:33.017760","MEAN_MOTION":13.12441325,"ECCENTRICITY":0.0001997,"INCLINATION":87.8944,"RA_OF_ASC_NODE":352.7377,"ARG_OF_PERICENTER":100.7171,"MEAN_ANOMALY":259.4183,"EPHEMERIS_TYPE":0,"CLASSIFICATION_TYPE":"U","NORAD_CAT_ID":47288,"ELEMENT_SET_NO":999,"REV_AT_EPOCH":26330,"BSTAR":-0.00081721,"MEAN_MOTION_DOT":-2.81e-06,"MEAN_MOTION_DDOT":0.0},{"OBJECT_NAME":"ONEWEB-0143","OBJECT_ID":"2020-100AH","EPOCH":"2026-06-06T19:08:57.958656","MEAN_MOTION":13.12443357,"ECCENTRICITY":0.0001825,"INCLINATION":87.8952,"RA_OF_ASC_NODE":352.7337,"ARG_OF_PERICENTER":89.0756,"MEAN_ANOMALY":271.0582,"EPHEMERIS_TYPE":0,"CLASSIFICATION_TYPE":"U","NORAD_CAT_ID":47289,"ELEMENT_SET_NO":999,"REV_AT_EPOCH":26328,"BSTAR":-0.0011741,"MEAN_MOTION_DOT":-4.1e-06,"MEAN_MOTION_DDOT":0.0},{"OBJECT_NAME":"ONEWEB-0144","OBJECT_ID":"2020-100AJ","EPOCH":"2026-06-06T18:27:31.599936","MEAN_MOTION":13.12441478,"ECCENTRICITY":0.000166,"INCLINATION":87.8955,"RA_OF_ASC_NODE":352.7132,"ARG_OF_PERICENTER":100.4247,"MEAN_ANOMALY":259.7069,"EPHEMERIS_TYPE":0,"CLASSIFICATION_TYPE":"U","NORAD_CAT_ID":47290,"ELEMENT_SET_NO":999,"REV_AT_EPOCH":26320,"BSTAR":0.0017735000000000001,"MEAN_MOTION_DOT":6.51e-06,"MEAN_MOTION_DDOT":0.0},{"OBJECT_NAME":"ONEWEB-0145","OBJECT_ID":"2020-100AK","EPOCH":"2026-06-06T19:35:48.522048","MEAN_MOTION":13.12444786,"ECCENTRICITY":0.0001801,"INCLINATION":87.8941,"RA_OF_ASC_NODE":352.733,"ARG_OF_PERICENTER":91.4648,"MEAN_ANOMALY":268.6687,"EPHEMERIS_TYPE":0,"CLASSIFICATION_TYPE":"U","NORAD_CAT_ID":47291,"ELEMENT_SET_NO":999,"REV_AT_EPOCH":26340,"BSTAR":-0.00012819,"MEAN_MOTION_DOT":-3.3e-07,"MEAN_MOTION_DDOT":0.0},{"OBJECT_NAME":"ONEWEB-0146","OBJECT_ID":"2020-100AL","EPOCH":"2026-06-06T14:01:35.254848","MEAN_MOTION":13.12444663,"ECCENTRICITY":0.0001856,"INCLINATION":87.8948,"RA_OF_ASC_NODE":352.77,"ARG_OF_PERICENTER":79.0237,"MEAN_ANOMALY":281.1101,"EPHEMERIS_TYPE":0,"CLASSIFICATION_TYPE":"U","NORAD_CAT_ID":47292,"ELEMENT_SET_NO":999,"REV_AT_EPOCH":26328,"BSTAR":-0.00039678,"MEAN_MOTION_DOT":-1.3e-06,"MEAN_MOTION_DDOT":0.0},{"OBJECT_NAME":"ONEWEB-0147","OBJECT_ID":"2020-100AM","EPOCH":"2026-06-06T18:42:08.068320","MEAN_MOTION":13.12442876,"ECCENTRICITY":0.0001629,"INCLINATION":87.8951,"RA_OF_ASC_NODE":352.7127,"ARG_OF_PERICENTER":87.3158,"MEAN_ANOMALY":272.8157,"EPHEMERIS_TYPE":0,"CLASSIFICATION_TYPE":"U","NORAD_CAT_ID":47293,"ELEMENT_SET_NO":999,"REV_AT_EPOCH":26320,"BSTAR":0.00029336,"MEAN_MOTION_DOT":1.18e-06,"MEAN_MOTION_DDOT":0.0},{"OBJECT_NAME":"ONEWEB-0115","OBJECT_ID":"2021-025A","EPOCH":"2026-06-06T17:44:43.194048","MEAN_MOTION":13.13470754,"ECCENTRICITY":0.0001784,"INCLINATION":87.8949,"RA_OF_ASC_NODE":322.3041,"ARG_OF_PERICENTER":91.9106,"MEAN_ANOMALY":268.2228,"EPHEMERIS_TYPE":0,"CLASSIFICATION_TYPE":"U","NORAD_CAT_ID":48042,"ELEMENT_SET_NO":999,"REV_AT_EPOCH":25222,"BSTAR":0.00036448000000000003,"MEAN_MOTION_DOT":1.46e-06,"MEAN_MOTION_DDOT":0.0},{"OBJECT_NAME":"ONEWEB-0152","OBJECT_ID":"2021-025B","EPOCH":"2026-06-06T18:04:13.295424","MEAN_MOTION":13.13470006,"ECCENTRICITY":0.0001755,"INCLINATION":87.8954,"RA_OF_ASC_NODE":322.2979,"ARG_OF_PERICENTER":89.5129,"MEAN_ANOMALY":270.6201,"EPHEMERIS_TYPE":0,"CLASSIFICATION_TYPE":"U","NORAD_CAT_ID":48043,"ELEMENT_SET_NO":999,"REV_AT_EPOCH":25218,"BSTAR":0.00083394,"MEAN_MOTION_DOT":3.17e-06,"MEAN_MOTION_DDOT":0.0},{"OBJECT_NAME":"ONEWEB-0153","OBJECT_ID":"2021-025C","EPOCH":"2026-06-06T17:32:31.488864","MEAN_MOTION":13.13471019,"ECCENTRICITY":0.000185,"INCLINATION":87.8947,"RA_OF_ASC_NODE":322.3059,"ARG_OF_PERICENTER":96.9103,"MEAN_ANOMALY":263.2237,"EPHEMERIS_TYPE":0,"CLASSIFICATION_TYPE":"U","NORAD_CAT_ID":48044,"ELEMENT_SET_NO":999,"REV_AT_EPOCH":25217,"BSTAR":-0.00030208000000000004,"MEAN_MOTION_DOT":-9.8e-07,"MEAN_MOTION_DDOT":0.0},{"OBJECT_NAME":"ONEWEB-0154","OBJECT_ID":"2021-025D","EPOCH":"2026-06-06T17:27:38.649024","MEAN_MOTION":13.13470532,"ECCENTRICITY":0.0001718,"INCLINATION":87.8949,"RA_OF_ASC_NODE":322.3041,"ARG_OF_PERICENTER":93.7502,"MEAN_ANOMALY":266.3824,"EPHEMERIS_TYPE":0,"CLASSIFICATION_TYPE":"U","NORAD_CAT_ID":48045,"ELEMENT_SET_NO":999,"REV_AT_EPOCH":25213,"BSTAR":-0.00029858,"MEAN_MOTION_DOT":-9.6e-07,"MEAN_MOTION_DDOT":0.0},{"OBJECT_NAME":"ONEWEB-0116","OBJECT_ID":"2021-025E","EPOCH":"2026-06-06T16:33:59.986368","MEAN_MOTION":13.13469487,"ECCENTRICITY":0.0001718,"INCLINATION":87.8957,"RA_OF_ASC_NODE":322.3073,"ARG_OF_PERICENTER":89.9785,"MEAN_ANOMALY":270.1541,"EPHEMERIS_TYPE":0,"CLASSIFICATION_TYPE":"U","NORAD_CAT_ID":48046,"ELEMENT_SET_NO":999,"REV_AT_EPOCH":25227,"BSTAR":0.00050667,"MEAN_MOTION_DOT":1.98e-06,"MEAN_MOTION_DDOT":0.0}]